GLOBALSTAR M023         
1 25621U 99004A   24263.46166366  .00000057  00000+0  89370-3 0  9994
2 25621  52.0092 157.7947 0009302 249.4753 282.4888 12.62473368181534
GLOBALSTAR M040         
1 25622U 99004B   24263.48948049 -.00000029  00000+0  41855-3 0  9999
2 25622  51.9899 161.4601 0000975 113.3592  58.3747 12.61983867181076
GLOBALSTAR M036         
1 25623U 99004C   24263.32336837 -.00000094  00000+0 -17146-3 0  9998
2 25623  51.9949 234.2473 0010527 253.5177 255.4589 11.86582457146823
GLOBALSTAR M038         
1 25624U 99004D   24263.55026219 -.00000044  00000+0  42098-3 0  9992
2 25624  51.9952 130.9645 0001296 185.2061 201.1306 12.32508201169004
GLOBALSTAR M022         
1 25649U 99012A   24263.53059649 -.00000047  00000+0  47824-3 0  9994
2 25649  52.0050 306.6672 0002278   1.2476 147.8863 12.02488189143816
GLOBALSTAR M041         
1 25650U 99012B   24263.50547924 -.00000103  00000+0 -23379-3 0  9994
2 25650  52.0009 179.9299 0002547 138.2311 221.8720 11.96660049145878
GLOBALSTAR M046         
1 25651U 99012C   24263.44615463 -.00000058  00000+0  34092-3 0  9994
2 25651  52.0043 266.9126 0002438  70.5190  76.7385 12.09397927150906
GLOBALSTAR M037         
1 25652U 99012D   24263.57940144 -.00000011  00000+0  51920-3 0  9994
2 25652  51.9997 288.1545 0001661 311.7111 189.6445 12.62418855177097
